COMMENT,ORIGINATOR,NORAD_CAT_ID,OBJECT_NAME,OBJECT_TYPE,CLASSIFICATION_TYPE,INTLDES,EPOCH,EPOCH_MICROSECONDS,MEAN_MOTION,ECCENTRICITY,INCLINATION,RA_OF_ASC_NODE,ARG_OF_PERICENTER,MEAN_ANOMALY,EPHEMERIS_TYPE,ELEMENT_SET_NO,REV_AT_EPOCH,BSTAR,MEAN_MOTION_DOT,MEAN_MOTION_DDOT,FILE,TLE_LINE0,TLE_LINE1,TLE_LINE2,OBJECT_ID,OBJECT_NUMBER,SEMIMAJOR_AXIS,PERIOD,APOGEE,PERIGEE,DECAYED
GENERATED VIA SPACETRACK.ORG API,18 SPCS,4084,SL-8 DEB,DEBRIS,U,69070C,2024-09-08 20:08:30,475968,14.46652741,0.0021165,74.066,81.0106,140.7189,219.551,0,999,90226,0.00021382,7.47e-06,0,4478964,0 SL-8 DEB,1  4084U 69070C   24252.83924162  .00000747  00000-0  21382-3 0  9995,2  4084  74.0660  81.0106 0021165 140.7189 219.5510 14.46652741902264,1969-070C,4084,7114.739,99.54,751.662,721.546,0
GENERATED VIA SPACETRACK.ORG API,18 SPCS,4084,SL-8 DEB,DEBRIS,U,69070C,2024-09-08 21:48:05,324544,14.46652843,0.0021161,74.066,80.8817,140.5647,219.7057,0,999,90229,0.00021377,7.47e-06,0,4479279,0 SL-8 DEB,1 04084U 69070C   24252.90839496  .00000747  00000-0  21377-3 0  9992,2 04084  74.0660  80.8817 0021161 140.5647 219.7057 14.46652843902297,1969-070C,4084,7114.739,99.54,751.659,721.548,0
GENERATED VIA SPACETRACK.ORG API,18 SPCS,4084,SL-8 DEB,DEBRIS,U,69070C,2024-09-09 14:23:53,785248,14.46654098,0.0021128,74.066,79.5924,139.0442,221.2309,0,999,90239,0.00022623,7.92e-06,0,4480636,0 SL-8 DEB,1 04084U 69070C   24253.59992807  .00000792  00000-0  22623-3 0  9999,2 04084  74.0660  79.5924 0021128 139.0442 221.2309 14.46654098902393,1969-070C,4084,7114.735,99.54,751.632,721.568,0
GENERATED VIA SPACETRACK.ORG API,18 SPCS,4084,SL-8 DEB,DEBRIS,U,69070C,2024-09-09 22:41:47,974560,14.4665462,0.0021116,74.0661,78.9477,138.2929,221.9844,0,999,90244,0.00022367,7.83e-06,0,4481180,0 SL-8 DEB,1 04084U 69070C   24253.94569415  .00000783  00000-0  22367-3 0  9998,2 04084  74.0661  78.9477 0021116 138.2929 221.9844 14.46654620902446,1969-070C,4084,7114.733,99.54,751.621,721.574,0
GENERATED VIA SPACETRACK.ORG API,18 SPCS,4084,SL-8 DEB,DEBRIS,U,69070C,2024-09-10 20:16:20,860032,14.46655935,0.0021089,74.0661,77.2717,136.3239,223.9593,0,999,90255,0.0002207,7.72e-06,0,4482928,0 SL-8 DEB,1  4084U 69070C   24254.84468588  .00000772  00000-0  22070-3 0  9996,2  4084  74.0661  77.2717 0021089 136.3239 223.9593 14.46655935902552,1969-070C,4084,7114.729,99.54,751.598,721.589,0
GENERATED VIA SPACETRACK.ORG API,18 SPCS,4084,SL-8 DEB,DEBRIS,U,69070C,2024-09-10 20:16:20,860032,14.46655935,0.0021089,74.0661,77.2717,136.3239,223.9593,0,999,90257,0.0002207,7.72e-06,0,4483177,0 SL-8 DEB,1 04084U 69070C   24254.84468588  .00000772  00000-0  22070-3 0  9996,2 04084  74.0661  77.2717 0021089 136.3239 223.9593 14.46655935902574,1969-070C,4084,7114.729,99.54,751.598,721.589,0
GENERATED VIA SPACETRACK.ORG API,18 SPCS,4084,SL-8 DEB,DEBRIS,U,69070C,2024-09-11 14:31:44,18112,14.46657339,0.0021056,74.0661,75.8534,134.6341,225.654,0,999,90268,0.00023302,8.17e-06,0,4484570,0 SL-8 DEB,1 04084U 69070C   24255.60537058  .00000817  00000-0  23302-3 0  9999,2 04084  74.0661  75.8534 0021056 134.6341 225.6540 14.46657339902687,1969-070C,4084,7114.724,99.54,751.57,721.608,0
GENERATED VIA SPACETRACK.ORG API,18 SPCS,4084,SL-8 DEB,DEBRIS,U,69070C,2024-09-11 21:10:03,330336,14.46657672,0.002104,74.0662,75.3377,134.0182,226.2715,0,999,90272,0.00022886,8.02e-06,0,4485202,0 SL-8 DEB,1 04084U 69070C   24255.88198299  .00000802  00000-0  22886-3 0  9999,2 04084  74.0662  75.3377 0021040 134.0182 226.2715 14.46657672902724,1969-070C,4084,7114.723,99.54,751.557,721.619,0
GENERATED VIA SPACETRACK.ORG API,18 SPCS,4084,SL-8 DEB,DEBRIS,U,69070C,2024-09-12 13:45:51,452352,14.46660908,0.0021022,74.0662,74.0484,132.4782,227.8157,0,999,90282,0.00031564,1.116e-05,0,4486509,0 SL-8 DEB,1 04084U 69070C   24256.57351218  .00001116  00000-0  31564-3 0  9990,2 04084  74.0662  74.0484 0021022 132.4782 227.8157 14.46660908902821,1969-070C,4084,7114.712,99.54,751.534,721.621,0
GENERATED VIA SPACETRACK.ORG API,18 SPCS,4084,SL-8 DEB,DEBRIS,U,69070C,2024-09-12 20:24:10,819872,14.46659927,0.0021018,74.0662,73.5327,131.9018,228.3938,0,999,90284,0.00025926,9.12e-06,0,4486905,0 SL-8 DEB,1  4084U 69070C   24256.85012523  .00000912  00000-0  25926-3 0  9992,2  4084  74.0662  73.5327 0021018 131.9018 228.3938 14.46659927902846,1969-070C,4084,7114.716,99.54,751.534,721.627,0
GENERATED VIA SPACETRACK.ORG API,18 SPCS,4084,SL-8 DEB,DEBRIS,U,69070C,2024-09-12 22:03:45,632160,14.46660123,0.0021021,74.0662,73.4037,131.7099,228.5862,0,999,90287,0.00026179,9.21e-06,0,4487389,0 SL-8 DEB,1 04084U 69070C   24256.91927815  .00000921  00000-0  26179-3 0  9999,2 04084  74.0662  73.4037 0021021 131.7099 228.5862 14.46660123902875,1969-070C,4084,7114.715,99.54,751.536,721.624,0
GENERATED VIA SPACETRACK.ORG API,18 SPCS,4084,SL-8 DEB,DEBRIS,U,69070C,2024-09-14 13:53:41,115840,14.46662692,0.0020979,74.0663,70.3095,128.0851,232.2204,0,999,90311,0.00024723,8.69e-06,0,4490768,0 SL-8 DEB,1 04084U 69070C   24258.57894810  .00000869  00000-0  24723-3 0  9995,2 04084  74.0663  70.3095 0020979 128.0851 232.2204 14.46662692903115,1969-070C,4084,7114.706,99.539,751.497,721.646,0
GENERATED VIA SPACETRACK.ORG API,18 SPCS,4084,SL-8 DEB,DEBRIS,U,69070C,2024-09-14 20:32:00,375360,14.46662524,0.0020969,74.0663,69.7937,127.4792,232.8278,0,999,90313,0.00022255,7.79e-06,0,4491002,0 SL-8 DEB,1  4084U 69070C   24258.85555990  .00000779  00000-0  22255-3 0  9997,2  4084  74.0663  69.7937 0020969 127.4792 232.8278 14.46662524903131,1969-070C,4084,7114.707,99.539,751.491,721.653,0
GENERATED VIA SPACETRACK.ORG API,18 SPCS,4084,SL-8 DEB,DEBRIS,U,69070C,2024-09-14 20:32:00,375360,14.46662524,0.0020969,74.0663,69.7937,127.4792,232.8278,0,999,90315,0.00022255,7.79e-06,0,4491570,0 SL-8 DEB,1 04084U 69070C   24258.85555990  .00000779  00000-0  22255-3 0  9997,2 04084  74.0663  69.7937 0020969 127.4792 232.8278 14.46662524903153,1969-070C,4084,7114.707,99.539,751.491,721.653,0
GENERATED VIA SPACETRACK.ORG API,18 SPCS,4084,SL-8 DEB,DEBRIS,U,69070C,2024-09-15 21:25:42,396384,14.46664461,0.0020932,74.0663,67.8599,125.1795,235.1328,0,999,90330,0.00023444,8.22e-06,0,4493626,0 SL-8 DEB,1 04084U 69070C   24259.89285181  .00000822  00000-0  23444-3 0  9994,2 04084  74.0663  67.8599 0020932 125.1795 235.1328 14.46664461903305,1969-070C,4084,7114.701,99.539,751.458,721.673,0
GENERATED VIA SPACETRACK.ORG API,18 SPCS,4084,SL-8 DEB,DEBRIS,U,69070C,2024-09-16 14:01:30,365472,14.46664783,0.0020923,74.0664,66.5706,123.6421,236.6738,0,999,90340,0.00019375,6.75e-06,0,4494952,0 SL-8 DEB,1 04084U 69070C   24260.58437923  .00000675  00000-0  19375-3 0  9999,2 04084  74.0664  66.5706 0020923 123.6421 236.6738 14.46664783903400,1969-070C,4084,7114.7,99.539,751.451,721.679,0
GENERATED VIA SPACETRACK.ORG API,18 SPCS,4084,SL-8 DEB,DEBRIS,U,69070C,2024-09-16 22:19:24,332736,14.46665241,0.0020912,74.0664,65.926,122.8382,237.4794,0,999,90345,0.00018995,6.61e-06,0,4495681,0 SL-8 DEB,1 04084U 69070C   24260.93014274  .00000661  00000-0  18995-3 0  9990,2 04084  74.0664  65.9260 0020912 122.8382 237.4794 14.46665241903459,1969-070C,4084,7114.698,99.539,751.441,721.685,0
GENERATED VIA SPACETRACK.ORG API,18 SPCS,4084,SL-8 DEB,DEBRIS,U,69070C,2024-09-17 04:57:43,343424,14.466682,0.0020903,74.0664,65.4102,122.2163,238.1026,0,999,90347,0.00029184,1.03e-05,0,4495775,0 SL-8 DEB,1  4084U 69070C   24261.20675166  .00001030  00000-0  29184-3 0  9997,2  4084  74.0664  65.4102 0020903 122.2163 238.1026 14.46668200903476,1969-070C,4084,7114.688,99.539,751.425,721.682,0
GENERATED VIA SPACETRACK.ORG API,18 SPCS,4084,SL-8 DEB,DEBRIS,U,69070C,2024-09-17 14:55:12,44352,14.4666892,0.0020898,74.0664,64.6366,121.2964,239.0244,0,999,90355,0.00028887,1.02e-05,0,4497321,0 SL-8 DEB,1 04084U 69070C   24261.62166718  .00001020  00000-0  28887-3 0  9999,2 04084  74.0664  64.6366 0020898 121.2964 239.0244 14.46668920903550,1969-070C,4084,7114.686,99.539,751.419,721.683,0
GENERATED VIA SPACETRACK.ORG API,18 SPCS,4084,SL-8 DEB,DEBRIS,U,69070C,2024-09-17 21:33:31,353120,14.46666739,0.0020887,74.0664,64.1209,120.659,239.6631,0,999,90359,0.00018447,6.41e-06,0,4497690,0 SL-8 DEB,1 04084U 69070C   24261.89827955  .00000641  00000-0  18447-3 0  9994,2 04084  74.0664  64.1209 0020887 120.6590 239.6631 14.46666739903593,1969-070C,4084,7114.693,99.539,751.419,721.698,0
GENERATED VIA SPACETRACK.ORG API,18 SPCS,4084,SL-8 DEB,DEBRIS,U,69070C,2024-09-18 12:29:44,452032,14.46667066,0.0020886,74.0665,62.9605,119.2811,241.0439,0,999,90368,0.00015989,5.52e-06,0,4498437,0 SL-8 DEB,1 04084U 69070C   24262.52065338  .00000552  00000-0  15989-3 0  9993,2 04084  74.0665  62.9605 0020886 119.2811 241.0439 14.46667066903686,1969-070C,4084,7114.692,99.539,751.417,721.697,0
GENERATED VIA SPACETRACK.ORG API,18 SPCS,4084,SL-8 DEB,DEBRIS,U,69070C,2024-09-18 20:47:38,380416,14.46667343,0.0020871,74.0666,62.3159,118.5149,241.8115,0,999,90371,0.00015334,5.29e-06,0,4498757,0 SL-8 DEB,1  4084U 69070C   24262.86641644  .00000529  00000-0  15334-3 0  9998,2  4084  74.0666  62.3159 0020871 118.5149 241.8115 14.46667343903716,1969-070C,4084,7114.691,99.539,751.405,721.707,0
GENERATED VIA SPACETRACK.ORG API,18 SPCS,4084,SL-8 DEB,DEBRIS,U,69070C,2024-09-18 20:47:38,380416,14.46667343,0.0020871,74.0666,62.3159,118.5149,241.8115,0,999,90373,0.00015334,5.29e-06,0,4498850,0 SL-8 DEB,1 04084U 69070C   24262.86641644  .00000529  00000-0  15334-3 0  9998,2 04084  74.0666  62.3159 0020871 118.5149 241.8115 14.46667343903738,1969-070C,4084,7114.691,99.539,751.405,721.707,0
GENERATED VIA SPACETRACK.ORG API,18 SPCS,4084,SL-8 DEB,DEBRIS,U,69070C,2024-09-19 10:04:16,625568,14.46668068,0.0020859,74.0666,61.2845,117.3104,243.0182,0,999,90381,0.00015234,5.25e-06,0,4499371,0 SL-8 DEB,1 04084U 69070C   24263.41963687  .00000525  00000-0  15234-3 0  9999,2 04084  74.0666  61.2845 0020859 117.3104 243.0182 14.46668068903814,1969-070C,4084,7114.689,99.539,751.394,721.713,0
